[{"OBJECT_NAME":"KORSAT-7","OBJECT_ID":"2023-185B","EPOCH":"2026-03-09T23:44:55.136256","MEAN_MOTION":15.00898391,"ECCENTRICITY":0.00224341,"INCLINATION":97.6243,"RA_OF_ASC_NODE":135.089,"ARG_OF_PERICENTER":307.6562,"MEAN_ANOMALY":52.2627,"EPHEMERIS_TYPE":0,"CLASSIFICATION_TYPE":"U","NORAD_CAT_ID":58463,"ELEMENT_SET_NO":999,"REV_AT_EPOCH":12440,"BSTAR":0.00023536002,"MEAN_MOTION_DOT":2.951e-5,"MEAN_MOTION_DDOT":0},{"OBJECT_NAME":"STARLINK-32932","OBJECT_ID":"2025-037G","EPOCH":"2026-03-09T23:21:37.969632","MEAN_MOTION":14.98322007,"ECCENTRICITY":0.00027887,"INCLINATION":70.0031,"RA_OF_ASC_NODE":353.7766,"ARG_OF_PERICENTER":257.9501,"MEAN_ANOMALY":102.1346,"EPHEMERIS_TYPE":0,"CLASSIFICATION_TYPE":"U","NORAD_CAT_ID":63083,"ELEMENT_SET_NO":999,"REV_AT_EPOCH":5850,"BSTAR":0.00098467625,"MEAN_MOTION_DOT":0.00011673,"MEAN_MOTION_DDOT":0}]
